OSCAR 7 (AO-7)          
1 07530U 74089B   19197.48821601 -.00000052  00000-0 -43671-4 0  9994
2 07530 101.7454 164.8663 0011799 295.1010 178.8199 12.53638861 44002
UOSAT 2 (UO-11)         
1 14781U 84021B   19197.49704036  .00000041  00000-0  11190-4 0  9997
2 14781  97.6093 220.8987 0007394 220.4209 139.6457 14.83095544902880
LUSAT (LO-19)           
1 20442U 90005G   19196.90171296 -.00000011  00000-0  12324-4 0  9996
2 20442  98.6495 138.8579 0012922  70.9937 289.2645 14.32928821540215
ITAMSAT (IO-26)         
1 22826U 93061D   19197.48175087 -.00000009  00000-0  14405-4 0  9994
2 22826  98.8980 186.7423 0007790 266.7920  93.2370 14.30396145346126
RADIO ROSTO (RS-15)     
1 23439U 94085A   19196.92145253 -.00000027  00000-0  43493-3 0  9990
2 23439  64.8180  72.0920 0146174 107.8923 253.8001 11.27568340 10965
JAS-2 (FO-29)           
1 24278U 96046B   19196.90971609 -.00000055  00000-0 -21010-4 0  9995
2 24278  98.5407 346.6314 0350619 169.2733 191.6141 13.53092629131233
TECHSAT 1B (GO-32)      
1 25397U 98043D   19196.81821174 -.00000034  00000-0  42476-5 0  9994
2 25397  98.6895 136.6352 0001079  16.7417 343.3797 14.23667675 91735
ISS (ZARYA)             
1 25544U 98067A   19197.51184428  .00000204  00000-0  11306-4 0  9991
2 25544  51.6432 215.7804 0006946 145.1590  13.1665 15.50980733179808
PCSAT (NO-44)           
1 26931U 01043C   19196.90706084 -.00000032  00000-0  19406-4 0  9999
2 26931  67.0519 293.4515 0007095 277.1120  82.9174 14.30546896928793
SAUDISAT 1C (SO-50)     
1 27607U 02058C   19197.46985192 -.00000059  00000-0  12677-4 0  9990
2 27607  64.5558 324.6677 0080391 251.1789 108.0582 14.75558643891130
CUTE-1 (CO-55)          
1 27844U 03031E   19197.44285410  .00000031  00000-0  33586-4 0  9990
2 27844  98.6833 205.2409 0008928 316.6259  43.4216 14.22185361832236
CUBESAT XI-IV (CO-57)   
1 27848U 03031J   19197.02065303  .00000024  00000-0  30817-4 0  9991
2 27848  98.6909 205.3310 0009074 330.3930  29.6733 14.21779667832022
MOZHAYETS 4 (RS-22)     
1 27939U 03042A   19197.53955389 -.00000006  00000-0  75171-5 0  9996
2 27939  98.0440 332.8174 0012353 344.8293  15.2546 14.66790477844620
CUBESAT XI-V            
1 28895U 05043F   19197.33179950  .00000078  00000-0  23832-4 0  9995
2 28895  97.9628 339.1208 0015388 263.7255  96.2195 14.63675131731523
CUTE-1.7+APD II (CO-65) 
1 32785U 08021C   19197.45219469  .00000117  00000-0  18203-4 0  9990
2 32785  97.5496 195.8577 0013420 164.0823 196.0819 14.88320722607816
DELFI-C3 (DO-64)        
1 32789U 08021G   19197.50605623  .00000589  00000-0  43336-4 0  9999
2 32789  97.4623 246.3299 0013113  37.3906 322.8232 15.06999384611154
SEEDS II (CO-66)        
1 32791U 08021J   19197.49106776  .00000305  00000-0  36246-4 0  9993
2 32791  97.5276 201.8967 0014361 140.0209 220.2070 14.90835201608251
YUBILEINY (RS-30)       
1 32953U 08025A   19197.41156110  .00000021  00000-0  75656-4 0  9999
2 32953  82.5027 127.5289 0020450  68.3691 291.9567 12.43090652505759
KKS-1 (KISEKI)          
1 33499U 09002H   19197.14058692  .00000044  00000-0  14517-4 0  9991
2 33499  98.3488  36.7211 0010359 115.6176 244.6103 14.75448160563278
SWISSCUBE               
1 35932U 09051B   19197.14878573  .00000085  00000-0  30268-4 0  9993
2 35932  98.5902   3.9281 0008883  83.4225 276.7983 14.56292394520779
BEESAT-1                
1 35933U 09051C   19197.42489688  .00000072  00000-0  27332-4 0  9994
2 35933  98.5927   5.9833 0007106  93.8903 266.3106 14.56380729520926
ITUPSAT1                
1 35935U 09051E   19197.42982779  .00000051  00000-0  22997-4 0  9994
2 35935  98.6038   6.2245 0009396  91.5036 268.7236 14.55539682520673
XIWANG-1 (HOPE-1)       
1 36122U 09072B   19197.09740556 -.00000017  00000-0  65555-4 0  9994
2 36122 100.0722 198.1883 0007007 283.4411  76.5926 13.16350531460488
JUGNU                   
1 37839U 11058B   19197.29909058  .00000287  00000-0  10910-4 0  9996
2 37839  19.9601 167.3607 0018708 271.3547 232.3505 14.12654019401166
SRMSAT                  
1 37841U 11058D   19197.45904662  .00000266  00000-0  76616-6 0  9997
2 37841  19.9705 223.7500 0011911 141.1756   4.8674 14.10634971400619
M-CUBED & EXP-1 PRIME   
1 37855U 11061F   19197.44713990  .00000913  00000-0  53569-4 0  9996
2 37855 101.7121 107.2907 0173592 354.6148   5.3193 15.05478735420953
STRAND-1                
1 39090U 13009E   19197.53556886  .00000022  00000-0  22875-4 0  9999
2 39090  98.4862  43.0238 0008632 199.1566 160.9296 14.35090098334389
SOMP                    
1 39134U 13015E   19197.45076817  .00000551  00000-0  34553-4 0  9990
2 39134  64.8637 290.5014 0032180 299.1856  60.6053 15.20199226344818
BEESAT-3                
1 39135U 13015F   19196.69724403  .00000527  00000-0  35942-4 0  9993
2 39135  64.8701 311.6200 0024857 316.6330  43.2840 15.17503383343951
BEESAT-2                
1 39136U 13015G   19196.48071745  .00000495  00000-0  34905-4 0  9997
2 39136  64.8712 316.2207 0020527 299.0625  60.8444 15.16931931344233
ZACUBE-1 (TSHEPISOSAT)  
1 39417U 13066B   19196.99833870  .00000135  00000-0  23517-4 0  9994
2 39417  97.5616 208.9651 0057616 305.4474  54.1369 14.81124489305089
GOMX-1                  
1 39430U 13066Q   19197.53050015  .00000112  00000-0  29072-4 0  9999
2 39430  97.7488 152.2526 0151328 165.9962 194.5495 14.59260708300669
CUBEBUG-2 (LO-74)       
1 39440U 13066AA  19197.48068354  .00000131  00000-0  25252-4 0  9996
2 39440  97.6024 194.2770 0080167 355.8850   4.1692 14.75862768304076
FUNCUBE-1 (AO-73)       
1 39444U 13066AE  19196.91630402  .00000158  00000-0  25906-4 0  9991
2 39444  97.5597 210.8599 0056624 299.3296  60.2268 14.81944767303376
UWE-3                   
1 39446U 13066AG  19197.43717702  .00000129  00000-0  23913-4 0  9994
2 39446  97.5809 201.2896 0069255 330.7355  28.9985 14.78397239303366
SPROUT                  
1 39770U 14029E   19197.34879596  .00000554  00000-0  67447-4 0  9996
2 39770  97.8851 300.4619 0009081   3.8639 356.2608 14.87363038278949
UNISAT-6                
1 40012U 14033C   19197.50843147  .00000116  00000-0  24746-4 0  9992
2 40012  97.7543  62.9169 0058685   9.6342 350.5977 14.73985541272782
DUCHIFAT-1              
1 40021U 14033M   19197.46877264  .00000341  00000-0  40614-4 0  9996
2 40021  97.9236 122.1546 0012097 324.8782  35.1637 14.90642510275684
QB50P1                  
1 40025U 14033R   19197.52216132  .00000193  00000-0  26560-4 0  9997
2 40025  97.9053 117.1618 0011839 334.7245  25.3391 14.88953368275463
NUDT-PHONESAT           
1 40900U 15049B   19197.44171328  .00001588  00000-0  70709-4 0  9998
2 40900  97.4369 206.5032 0014542  87.1434  20.8465 15.22847900211887
ZDPS 2A                 
1 40901U 15049C   19197.51004432  .00000515  00000-0  28784-4 0  9993
2 40901  97.4591 202.9290 0014995 104.3748  46.7315 15.17748478211451
ZDPS 2B                 
1 40902U 15049D   19197.47316691  .00001055  00000-0  55773-4 0  9990
2 40902  97.4540 200.3790 0015104 101.7185  51.7821 15.17575264211428
XW-2A                   
1 40903U 15049E   19197.49301581  .00001454  00000-0  36128-4 0  9991
2 40903  97.3362 240.4114 0014975  49.5068  56.4967 15.41914160214536
KAITUO 1A               
1 40904U 15049F   19197.47795260  .00000604  00000-0  35414-4 0  9994
2 40904  97.4667 199.0092 0016067 109.1972  43.4303 15.15378233211208
2015-049G               
1 40905U 15049G   19197.51291676  .00000035  00000-0  54617-5 0  9997
2 40905  97.4706 196.5699 0017153 104.8131  53.4738 15.14300886211081
XW-2C                   
1 40906U 15049H   19197.39939841  .00000709  00000-0  40608-4 0  9999
2 40906  97.4673 199.0171 0016368 101.1165   8.6532 15.15692911211192
XW-2D                   
1 40907U 15049J   19197.44888374  .00000290  00000-0  18563-4 0  9990
2 40907  97.4648 198.7448 0015738  99.3926  61.0262 15.15878811211212
LILACSAT-2              
1 40908U 15049K   19197.49932263  .00000141  00000-0  11368-4 0  9994
2 40908  97.4784 197.6153 0017354 104.8634  46.6251 15.13810127211018
XW-2F                   
1 40910U 15049M   19197.44033685  .00000650  00000-0  35900-4 0  9995
2 40910  97.4620 200.7598 0016386  93.2188  11.1517 15.17320629211220
XW-2B                   
1 40911U 15049N   19197.40752846  .00000738  00000-0  42026-4 0  9993
2 40911  97.4677 199.3568 0015640  99.4845  10.3359 15.15811955211100
KAITUO 1B               
1 40912U 15049P   19197.50357171  .00000880  00000-0  44389-4 0  9999
2 40912  97.4489 204.4949 0016632  76.5870  74.5450 15.19636634211533
TIANWANG 1C (TW-1C)     
1 40926U 15051B   19197.50119627  .00007774  00000-0  11251-3 0  9999
2 40926  97.1340 243.6444 0006040 268.4030 197.3164 15.56156251214484
TIANWANG 1A (TW-1A)     
1 40928U 15051D   19197.49235916  .00002173  00000-0  54815-4 0  9991
2 40928  97.1441 228.1806 0010533 342.0352 155.4421 15.40892524213456
LAPAN-A2                
1 40931U 15052B   19196.40392361  .00000053  00000-0 -81873-4 0  9994
2 40931   6.0031 226.1704 0013055 172.7605  27.7428 14.76605555205217
E-ST@R-II               
1 41459U 16025D   19197.38754258  .00001354  00000-0  73564-4 0  9998
2 41459  98.1027 285.2851 0166770 265.2052  93.0117 15.05487421176712
AAUSAT 4                
1 41460U 16025E   19197.19598412  .00001148  00000-0  61891-4 0  9998
2 41460  98.0967 286.3936 0156607 258.3205 100.0496 15.07373511176819
NUSAT-1 (FRESCO)        
1 41557U 16033B   19197.49716465  .00000839  00000-0  34144-4 0  9994
2 41557  97.4183 284.8361 0013421 192.8376 167.2523 15.27250779174334
BEESAT-4                
1 41619U 16040W   19197.17298230  .00000875  00000-0  39972-4 0  9995
2 41619  97.3659 258.8833 0009651 290.0124  70.0074 15.23169094158044
CAS-2T & KS-1Q          
1 41847U 16066G   19197.09444764  .00000065  00000-0  19763-4 0  9999
2 41847  98.7036 238.2592 0366548 153.2776 208.7828 14.37994355140935
NAYIF-1 (EO-88)         
1 42017U 17008BX  19196.85281543  .00001015  00000-0  42804-4 0  9991
2 42017  97.4019 263.6661 0007908  78.0153 282.1971 15.25574346134060
MAX VALIER SAT          
1 42778U 17036P   19197.46989826  .00000635  00000-0  30714-4 0  9997
2 42778  97.3527 254.5226 0013937 122.9644 237.2935 15.22045431114464
RADFXSAT (FOX-1B)       
1 43017U 17073E   19197.00706343  .00000511  00000-0  44744-4 0  9997
2 43017  97.7226 117.2981 0259657  69.5900 293.2992 14.78567209 89295
FOX-1D (AO-92)          
1 43137U 18004AC  19196.75586746  .00000681  00000-0  31521-4 0  9996
2 43137  97.4863 264.4970 0010037 152.6385 207.5382 15.23491680 83625
ES'HAIL 2               
1 43700U 18090A   19197.12846888  .00000133  00000-0  00000+0 0  9990
2 43700   0.0160 355.2578 0001838 124.6622 245.8157  1.00271385  2574
FOX-1CLIFF (AO-95)      
1 43770U 18099N   19197.14870489  .00000582  00000-0  58787-4 0  9990
2 43770  97.7444 268.6664 0013302 238.9009 121.0907 14.94777182 33529
ITASAT 1                
1 43786U 18099AE  19197.15866326  .00000367  00000-0  38632-4 0  9991
2 43786  97.7459 268.8495 0013957 232.8947 127.0999 14.95148135 33535
JY1SAT (JO-97)          
1 43803U 18099AX  19197.14101958  .00000556  00000-0  55681-4 0  9996
2 43803  97.7415 268.7465 0014023 233.5006 126.4923 14.95278336 33528
